{
  "type": "FeatureCollection",
  "features": [
    {
      "type": "Feature",
      "properties": {
        "norad_id": 66555,
        "name": "ELECTRON KICK STAGE R/B",
        "group": "last-30-days",
        "lat": 36.13845274373451,
        "lon": 98.28203972520481,
        "alt_km": 456.7643155896976,
        "timestamp": "2025-12-14T22:38:39.516754+00:00",
        "meta_object_name": "ELECTRON KICK STAGE R/B",
        "meta_object_id": "2025-267B",
        "meta_epoch": "2025-12-14T08:18:11.076192",
        "meta_mean_motion": 15.32911414,
        "meta_eccentricity": 0.00065234,
        "meta_inclination": 42.0199,
        "meta_ra_of_asc_node": 47.5443,
        "meta_arg_of_pericenter": 66.1906,
        "meta_mean_anomaly": 293.9616,
        "meta_ephemeris_type": 0,
        "meta_classification_type": "U",
        "meta_norad_cat_id": 66555,
        "meta_element_set_no": 999,
        "meta_rev_at_epoch": 365,
        "meta_bstar": 0.00082850914,
        "meta_mean_motion_dot": 0.00026771,
        "meta_mean_motion_ddot": 0,
        "tle_line1": "1 66555U 25267B   25348.34596153  .00026771  00000+0  82851-3 0  9996",
        "tle_line2": "2 66555  42.0199  47.5443 0006523  66.1906 293.9616 15.32911414  3656"
      },
      "geometry": {
        "type": "Point",
        "coordinates": [
          98.28203972520481,
          36.13845274373451
        ]
      }
    },
    {
      "type": "Feature",
      "properties": {
        "norad_id": 66557,
        "name": "STARLINK-35699",
        "group": "last-30-days",
        "lat": 3.245116879111224,
        "lon": -75.17908377824439,
        "alt_km": 414.21015852868095,
        "timestamp": "2025-12-14T22:38:39.516766+00:00",
        "meta_object_name": "STARLINK-35699",
        "meta_object_id": "2025-268A",
        "meta_epoch": "2025-12-14T07:58:46.481088",
        "meta_mean_motion": 15.50596378,
        "meta_eccentricity": 0.00016026,
        "meta_inclination": 42.9996,
        "meta_ra_of_asc_node": 111.8847,
        "meta_arg_of_pericenter": 276.7562,
        "meta_mean_anomaly": 83.3116,
        "meta_ephemeris_type": 0,
        "meta_classification_type": "U",
        "meta_norad_cat_id": 66557,
        "meta_element_set_no": 999,
        "meta_rev_at_epoch": 487,
        "meta_bstar": 0.0019110213,
        "meta_mean_motion_dot": 0.00113478,
        "meta_mean_motion_ddot": 0,
        "tle_line1": "1 66557U 25268A   25348.33248242  .00113478  00000+0  19110-2 0  9999",
        "tle_line2": "2 66557  42.9996 111.8847 0001602 276.7562  83.3116 15.50596378  4874"
      },
      "geometry": {
        "type": "Point",
        "coordinates": [
          -75.17908377824439,
          3.245116879111224
        ]
      }
    },
    {
      "type": "Feature",
      "properties": {
        "norad_id": 66558,
        "name": "STARLINK-35695",
        "group": "last-30-days",
        "lat": 1.9178966069560408,
        "lon": -73.75553951269347,
        "alt_km": 414.53335158091977,
        "timestamp": "2025-12-14T22:38:39.516776+00:00",
        "meta_object_name": "STARLINK-35695",
        "meta_object_id": "2025-268B",
        "meta_epoch": "2025-12-14T01:47:14.395488",
        "meta_mean_motion": 15.50575573,
        "meta_eccentricity": 0.00039742,
        "meta_inclination": 42.9996,
        "meta_ra_of_asc_node": 113.3889,
        "meta_arg_of_pericenter": 270.3907,
        "meta_mean_anomaly": 89.6498,
        "meta_ephemeris_type": 0,
        "meta_classification_type": "U",
        "meta_norad_cat_id": 66558,
        "meta_element_set_no": 999,
        "meta_rev_at_epoch": 483,
        "meta_bstar": 0.0015135693,
        "meta_mean_motion_dot": 0.00089481,
        "meta_mean_motion_ddot": 0,
        "tle_line1": "1 66558U 25268B   25348.07447217  .00089481  00000+0  15136-2 0  9994",
        "tle_line2": "2 66558  42.9996 113.3889 0003974 270.3907  89.6498 15.50575573  4837"
      },
      "geometry": {
        "type": "Point",
        "coordinates": [
          -73.75553951269347,
          1.9178966069560408
        ]
      }
    },
    {
      "type": "Feature",
      "properties": {
        "norad_id": 66559,
        "name": "STARLINK-35419",
        "group": "last-30-days",
        "lat": 0.5056163619741048,
        "lon": -72.24279405174342,
        "alt_km": 414.12945573426623,
        "timestamp": "2025-12-14T22:38:39.516786+00:00",
        "meta_object_name": "STARLINK-35419",
        "meta_object_id": "2025-268C",
        "meta_epoch": "2025-12-14T01:46:45.280416",
        "meta_mean_motion": 15.5058629,
        "meta_eccentricity": 0.0002097,
        "meta_inclination": 42.9995,
        "meta_ra_of_asc_node": 113.3872,
        "meta_arg_of_pericenter": 266.2883,
        "meta_mean_anomaly": 93.7738,
        "meta_ephemeris_type": 0,
        "meta_classification_type": "U",
        "meta_norad_cat_id": 66559,
        "meta_element_set_no": 999,
        "meta_rev_at_epoch": 483,
        "meta_bstar": 0.0022108214,
        "meta_mean_motion_dot": 0.00131596,
        "meta_mean_motion_ddot": 0,
        "tle_line1": "1 66559U 25268C   25348.07413519  .00131596  00000+0  22108-2 0  9995",
        "tle_line2": "2 66559  42.9995 113.3872 0002097 266.2883  93.7738 15.50586290  4832"
      },
      "geometry": {
        "type": "Point",
        "coordinates": [
          -72.24279405174342,
          0.5056163619741048
        ]
      }
    },
    {
      "type": "Feature",
      "properties": {
        "norad_id": 66560,
        "name": "STARLINK-35411",
        "group": "last-30-days",
        "lat": -0.6904233885998304,
        "lon": -70.96264645029235,
        "alt_km": 414.69955343265974,
        "timestamp": "2025-12-14T22:38:39.516798+00:00",
        "meta_object_name": "STARLINK-35411",
        "meta_object_id": "2025-268D",
        "meta_epoch": "2025-12-14T01:46:15.370464",
        "meta_mean_motion": 15.5056456,
        "meta_eccentricity": 0.00018763,
        "meta_inclination": 42.9996,
        "meta_ra_of_asc_node": 113.3853,
        "meta_arg_of_pericenter": 274.4813,
        "meta_mean_anomaly": 85.5833,
        "meta_ephemeris_type": 0,
        "meta_classification_type": "U",
        "meta_norad_cat_id": 66560,
        "meta_element_set_no": 999,
        "meta_rev_at_epoch": 483,
        "meta_bstar": 0.0014804679,
        "meta_mean_motion_dot": 0.00087442,
        "meta_mean_motion_ddot": 0,
        "tle_line1": "1 66560U 25268D   25348.07378901  .00087442  00000+0  14805-2 0  9997",
        "tle_line2": "2 66560  42.9996 113.3853 0001876 274.4813  85.5833 15.50564560  4833"
      },
      "geometry": {
        "type": "Point",
        "coordinates": [
          -70.96264645029235,
          -0.6904233885998304
        ]
      }
    },
    {
      "type": "Feature",
      "properties": {
        "norad_id": 66561,
        "name": "STARLINK-35305",
        "group": "last-30-days",
        "lat": -3.3925536091566983,
        "lon": -68.06780223875285,
        "alt_km": 414.5342837407361,
        "timestamp": "2025-12-14T22:38:39.516808+00:00",
        "meta_object_name": "STARLINK-35305",
        "meta_object_id": "2025-268E",
        "meta_epoch": "2025-12-14T01:45:16.679808",
        "meta_mean_motion": 15.50577223,
        "meta_eccentricity": 0.00010117,
        "meta_inclination": 42.9991,
        "meta_ra_of_asc_node": 113.378,
        "meta_arg_of_pericenter": 263.8473,
        "meta_mean_anomaly": 96.2271,
        "meta_ephemeris_type": 0,
        "meta_classification_type": "U",
        "meta_norad_cat_id": 66561,
        "meta_element_set_no": 999,
        "meta_rev_at_epoch": 483,
        "meta_bstar": 0.0021671346,
        "meta_mean_motion_dot": 0.00128899,
        "meta_mean_motion_ddot": 0,
        "tle_line1": "1 66561U 25268E   25348.07310972  .00128899  00000+0  21671-2 0  9993",
        "tle_line2": "2 66561  42.9991 113.3780 0001011 263.8473  96.2271 15.50577223  4838"
      },
      "geometry": {
        "type": "Point",
        "coordinates": [
          -68.06780223875285,
          -3.3925536091566983
        ]
      }
    },
    {
      "type": "Feature",
      "properties": {
        "norad_id": 66562,
        "name": "STARLINK-35579",
        "group": "last-30-days",
        "lat": -2.1360342826332444,
        "lon": -69.41650706466902,
        "alt_km": 414.64479463252246,
        "timestamp": "2025-12-14T22:38:39.516818+00:00",
        "meta_object_name": "STARLINK-35579",
        "meta_object_id": "2025-268F",
        "meta_epoch": "2025-12-14T01:45:45.886464",
        "meta_mean_motion": 15.50587495,
        "meta_eccentricity": 0.00023012,
        "meta_inclination": 42.9997,
        "meta_ra_of_asc_node": 113.381,
        "meta_arg_of_pericenter": 279.1651,
        "meta_mean_anomaly": 80.8949,
        "meta_ephemeris_type": 0,
        "meta_classification_type": "U",
        "meta_norad_cat_id": 66562,
        "meta_element_set_no": 999,
        "meta_rev_at_epoch": 483,
        "meta_bstar": 0.0024162498,
        "meta_mean_motion_dot": 0.00144095,
        "meta_mean_motion_ddot": 0,
        "tle_line1": "1 66562U 25268F   25348.07344776  .00144095  00000+0  24162-2 0  9997",
        "tle_line2": "2 66562  42.9997 113.3810 0002301 279.1651  80.8949 15.50587495  4833"
      },
      "geometry": {
        "type": "Point",
        "coordinates": [
          -69.41650706466902,
          -2.1360342826332444
        ]
      }
    }
  ]
}